{
    "links": {
        "self": "http://www.neowsapp.com/rest/v1/neo/3824976?api_key=iIulBulltgU6a56xZRHN4H3l9WmuAYTsLGpBGhQ2"
    },
    "id": "3824976",
    "neo_reference_id": "3824976",
    "name": "(2018 KO)",
    "designation": "2018 KO",
    "nasa_jpl_url": "http://ssd.jpl.nasa.gov/sbdb.cgi?sstr=3824976",
    "absolute_magnitude_h": 26.1,
    "estimated_diameter": {
        "kilometers": {
            "estimated_diameter_min": 0.0160160338,
            "estimated_diameter_max": 0.0358129403
        },
        "meters": {
            "estimated_diameter_min": 16.0160337979,
            "estimated_diameter_max": 35.8129403019
        },
        "miles": {
            "estimated_diameter_min": 0.0099518989,
            "estimated_diameter_max": 0.0222531225
        },
        "feet": {
            "estimated_diameter_min": 52.5460443254,
            "estimated_diameter_max": 117.4965270602
        }
    },
    "is_potentially_hazardous_asteroid": false,
    "close_approach_data": [
        {
            "close_approach_date": "2018-05-15",
            "close_approach_date_full": "2018-May-15 01:24",
            "epoch_date_close_approach": 1526347440000,
            "relative_velocity": {
                "kilometers_per_second": "11.4553632963",
                "kilometers_per_hour": "41239.3078665209",
                "miles_per_hour": "25624.5021573946"
            },
            "miss_distance": {
                "astronomical": "0.0354354398",
                "lunar": "13.7843860822",
                "kilometers": "5301066.316593226",
                "miles": "3293929.8675734788"
            },
            "orbiting_body": "Earth"
        }
    ],
    "orbital_data": {
        "orbit_id": "4",
        "orbit_determination_date": "2018-05-24 06:24:37",
        "first_observation_date": "2018-05-17",
        "last_observation_date": "2018-05-24",
        "data_arc_in_days": 7,
        "observations_used": 40,
        "orbit_uncertainty": "8",
        "minimum_orbit_intersection": ".0203429",
        "jupiter_tisserand_invariant": "3.263",
        "epoch_osculation": "2458256.5",
        "eccentricity": ".6000426762952411",
        "semi_major_axis": "2.380503712509432",
        "inclination": "5.497457309637258",
        "ascending_node_longitude": "60.29718014072379",
        "orbital_period": "1341.534116089705",
        "perihelion_distance": ".9520998939245151",
        "perihelion_argument": "134.7655829129871",
        "aphelion_distance": "3.808907531094349",
        "perihelion_time": "2458224.113482935061",
        "mean_anomaly": "8.690905436950084",
        "mean_motion": ".2683494930783615",
        "equinox": "J2000",
        "orbit_class": {
            "orbit_class_type": "APO",
            "orbit_class_description": "Near-Earth asteroid orbits which cross the Earth’s orbit similar to that of 1862 Apollo",
            "orbit_class_range": "a (semi-major axis) > 1.0 AU; q (perihelion) < 1.017 AU"
        }
    },
    "is_sentry_object": false
}